{
  "norad_id": 45696,
  "name": "STARLINK-1422",
  "history": [
    {
      "epoch": "2026-03-28T21:53:24.488736",
      "apogee_km": 476.065567798948,
      "perigee_km": 474.27411339081664,
      "latitude_deg": 47.260524926886234,
      "longitude_deg": -82.83945696009323,
      "semi_major_axis_km": 6853.3068405948825,
      "eccentricity": 0.0001307,
      "inclination_deg": 53.1598,
      "raan_deg": 320.2979,
      "arg_perigee_deg": 76.5304,
      "mean_anomaly_deg": 283.5843,
      "mean_motion_rev_day": 15.30215148
    }
  ]
}