{"fetched_at":"2026-03-29T16:36:15Z","count":15609,"tles":[{"name":"STARLINK-1422","line1":"1 45696U 20035AR  26087.91208899 -.00002635  00000+0 -76823-4 0  9996","line2":"2 45696  53.1598 320.2979 0001307  76.5304 283.5843 15.30215148321910","category":"Starlink"}]}